{
    "links": {
        "self": "http://www.neowsapp.com/rest/v1/neo/3726510?api_key=iIulBulltgU6a56xZRHN4H3l9WmuAYTsLGpBGhQ2"
    },
    "id": "3726510",
    "neo_reference_id": "3726510",
    "name": "(2015 PM307)",
    "designation": "2015 PM307",
    "nasa_jpl_url": "http://ssd.jpl.nasa.gov/sbdb.cgi?sstr=3726510",
    "absolute_magnitude_h": 21.7,
    "estimated_diameter": {
        "kilometers": {
            "estimated_diameter_min": 0.1214940408,
            "estimated_diameter_max": 0.2716689341
        },
        "meters": {
            "estimated_diameter_min": 121.4940407996,
            "estimated_diameter_max": 271.6689340891
        },
        "miles": {
            "estimated_diameter_min": 0.0754928736,
            "estimated_diameter_max": 0.1688071972
        },
        "feet": {
            "estimated_diameter_min": 398.6025088171,
            "estimated_diameter_max": 891.3023057169
        }
    },
    "is_potentially_hazardous_asteroid": true,
    "close_approach_data": [
        {
            "close_approach_date": "1913-07-31",
            "close_approach_date_full": "1913-Jul-31 18:37",
            "epoch_date_close_approach": -1780464180000,
            "relative_velocity": {
                "kilometers_per_second": "9.2216706024",
                "kilometers_per_hour": "33198.0141686353",
                "miles_per_hour": "20627.9549705057"
            },
            "miss_distance": {
                "astronomical": "1.5063454153",
                "lunar": "585.9683665517",
                "kilometers": "225346065.613145411",
                "miles": "140023552.1936162318"
            },
            "orbiting_body": "Juptr"
        },
        {
            "close_approach_date": "2015-08-27",
            "close_approach_date_full": "2015-Aug-27 12:05",
            "epoch_date_close_approach": 1440677100000,
            "relative_velocity": {
                "kilometers_per_second": "34.3189377243",
                "kilometers_per_hour": "123548.1758075376",
                "miles_per_hour": "76768.0317955225"
            },
            "miss_distance": {
                "astronomical": "0.153557158",
                "lunar": "59.733734462",
                "kilometers": "22971823.76005346",
                "miles": "14274029.388959348"
            },
            "orbiting_body": "Earth"
        },
        {
            "close_approach_date": "2015-09-09",
            "close_approach_date_full": "2015-Sep-09 18:21",
            "epoch_date_close_approach": 1441822860000,
            "relative_velocity": {
                "kilometers_per_second": "29.2226429075",
                "kilometers_per_hour": "105201.5144670522",
                "miles_per_hour": "65368.1299198192"
            },
            "miss_distance": {
                "astronomical": "0.085719412",
                "lunar": "33.344851268",
                "kilometers": "12823441.45285244",
                "miles": "7968117.032306072"
            },
            "orbiting_body": "Venus"
        }
    ],
    "orbital_data": {
        "orbit_id": "4",
        "orbit_determination_date": "2017-04-06 08:32:23",
        "first_observation_date": "2015-08-12",
        "last_observation_date": "2015-08-23",
        "data_arc_in_days": 11,
        "observations_used": 20,
        "orbit_uncertainty": "9",
        "minimum_orbit_intersection": ".0446628",
        "jupiter_tisserand_invariant": "3.035",
        "epoch_osculation": "2457249.5",
        "eccentricity": ".8607199133727426",
        "semi_major_axis": "2.184568019863367",
        "inclination": "8.037905444741723",
        "ascending_node_longitude": "142.1075266128104",
        "orbital_period": "1179.361060519718",
        "perihelion_distance": ".3042668230497059",
        "perihelion_argument": "319.1646374742832",
        "aphelion_distance": "4.064869216677027",
        "perihelion_time": "2457302.033595447867",
        "mean_anomaly": "343.9641183736404",
        "mean_motion": ".30525003075933",
        "equinox": "J2000",
        "orbit_class": {
            "orbit_class_type": "APO",
            "orbit_class_description": "Near-Earth asteroid orbits which cross the Earth’s orbit similar to that of 1862 Apollo",
            "orbit_class_range": "a (semi-major axis) > 1.0 AU; q (perihelion) < 1.017 AU"
        }
    },
    "is_sentry_object": false
}